COSMOS 2433 (720)       
1 32275U 07052A   22196.26914071 -.00000064  00000+0  00000+0 0  9992
2 32275  66.0827   3.7468 0001241 170.1471 189.9177  2.13104214114564
COSMOS 2432 (719)       
1 32276U 07052B   22196.33610397 -.00000064  00000+0  00000+0 0  9995
2 32276  66.0960   3.8461 0008491 342.4323  17.2647  2.13103464114551
COSMOS 2434 (721)       
1 32393U 07065A   22196.51913341  .00000050  00000+0  00000+0 0  9998
2 32393  64.3795 240.4687 0000918 136.3280 305.1859  2.13103047113274
COSMOS 2436 (723)       
1 32395U 07065C   22195.77080650  .00000061  00000+0  00000+0 0  9997
2 32395  64.3874 240.5503 0014542 353.3695   9.9271  2.13103131113193
COSMOS 2456 (730)       
1 36111U 09070A   22196.42279113  .00000004  00000+0  00000+0 0  9999
2 36111  64.3595 120.0936 0005197 309.2823 223.5108  2.13099398 97939
COSMOS 2457 (733)       
1 36112U 09070B   22196.26892632  .00000003  00000+0  00000+0 0  9998
2 36112  64.3426 119.9748 0004010 180.5016   1.7635  2.13101623 97934
COSMOS 2461 (735)       
1 36401U 10007B   22196.25244259 -.00000064  00000+0  00000+0 0  9994
2 36401  65.9703   2.5821 0020368  13.9000 190.7502  2.13103777 96286
COSMOS 2460 (732)       
1 36402U 10007C   22195.82688322 -.00000063  00000+0  00000+0 0  9999
2 36402  65.9542   2.5454 0002737  86.7037 100.1507  2.13106435 96271
COSMOS 2464 (736)       
1 37139U 10041C   22195.09420059  .00000070  00000+0  00000+0 0  9992
2 37139  63.9787 239.5801 0027948   7.1444 279.2333  2.13100870 92319
COSMOS 2476 (744)       
1 37867U 11064A   22196.52111258  .00000006  00000+0  00000+0 0  9992
2 37867  64.6476 121.4578 0022218 239.8084 274.1582  2.13101943 83287
COSMOS 2477 (745)       
1 37868U 11064B   22196.32459351  .00000005  00000+0  00000+0 0  9999
2 37868  64.6556 121.5291 0019504 241.1082 300.1938  2.13101803 83233
COSMOS 2475 (743)       
1 37869U 11064C   22195.80786368  .00000002  00000+0  00000+0 0  9990
2 37869  64.6632 121.5558 0024157 257.9702 204.9603  2.13102149 83233
COSMOS 2485 (747)       
1 39155U 13019A   22196.38564049  .00000005  00000+0  00000+0 0  9999
2 39155  64.8114 121.8966 0022640 235.6096 218.8217  2.13102091 71755
COSMOS 2492 (754)       
1 39620U 14012A   22196.21438325 -.00000064  00000+0  00000+0 0  9995
2 39620  65.8425   2.2110 0011481 333.4343  24.0694  2.13103285 64691
COSMOS 2500 (755)       
1 40001U 14032A   22196.16855675 -.00000064  00000+0  00000+0 0  9997
2 40001  65.7795   2.0704 0005819 178.3979   2.5408  2.13102444 62914
COSMOS 2501 (702K)      
1 40315U 14075A   22196.25987862  .00000053  00000+0  00000+0 0  9993
2 40315  63.6857 240.1973 0019162 210.8297 208.2975  2.13101585 59322
COSMOS 2514 (751)       
1 41330U 16008A   22196.16224611 -.00000065  00000+0  00000+0 0  9999
2 41330  65.5806   1.7562 0009552 198.0605 161.9124  2.13102646 50086
COSMOS 2516 (753)       
1 41554U 16032A   22195.34632834  .00000066  00000+0  00000+0 0  9993
2 41554  63.9126 240.5127 0014829 215.8943 141.4185  2.13106547 47661
COSMOS 2522 (752)       
1 42939U 17055A   22195.90393181  .00000058  00000+0  00000+0 0  9999
2 42939  64.1458 240.8960 0009302 241.7631  39.6696  2.13102043 37436
COSMOS 2527 (756)       
1 43508U 18053A   22196.20506998  .00000005  00000+0  00000+0 0  9999
2 43508  64.9737 121.9095 0008594 238.8355 305.7215  2.13102599 31734
COSMOS 2529 (757)       
1 43687U 18086A   22195.02617271  .00000070  00000+0  00000+0 0  9991
2 43687  64.3608 241.2501 0011047 262.5483  21.0276  2.13102221 28726
COSMOS 2534 (758)       
1 44299U 19030A   22195.77234013  .00000060  00000+0  00000+0 0  9991
2 44299  64.4327 241.1114 0013427 282.2741 348.2975  2.13102133 24384
COSMOS 2544 (759)       
1 44850U 19088A   22196.52478734  .00000007  00000+0  16595+1 0  9999
2 44850  64.9596 121.7498 0013439 262.8564 210.4232  2.13102365 20174
COSMOS 2545 (760)       
1 45358U 20018A   22195.59163047 -.00000064  00000+0  00000+0 0  9999
2 45358  64.9177   2.3613 0006656 239.6709  87.1670  2.13102818 18100
COSMOS 2547 (705K)      
1 46805U 20075A   22195.35188253  .00000067  00000+0  00000+0 0  9992
2 46805  64.6580 240.5592 0008196 244.3563 111.4456  2.13103269 13342
COSMOS 2557 (706K)      
1 52984U 22075A   22196.11433821 -.00000066  00000+0  10000-3 0  9993
2 52984  64.8175   4.5495 0013236  17.0190  88.3738  2.12523527   164
